NORAD_CAT_ID,OBJECT_NAME,OBJECT_TYPE,EPOCH,MEAN_MOTION,ECCENTRICITY,INCLINATION,RA_OF_ASC_NODE,ARG_OF_PERICENTER,MEAN_ANOMALY,BSTAR,MEAN_MOTION_DOT,MEAN_MOTION_DDOT,TLE_LINE0,TLE_LINE1,TLE_LINE2,SEMIMAJOR_AXIS,PERIOD,APOGEE,PERIGEE,DECAYED
49149.0,STARLINK-3053,PAYLOAD,2022-06-21 06:25:01,14.98333017,0.0003087,70.0003,116.987,272.2515,87.829,6.3248e-05,6.62e-06,0.0,0 STARLINK-3053,1 49149U 21082V   22172.26737377  .00000662  00000-0  63248-4 0  9997,2 49149  70.0003 116.9870 0003087 272.2515  87.8290 14.98333017 43856,6950.184,96.107,574.194,569.903,0.0
49149.0,STARLINK-3053,PAYLOAD,2022-06-21 20:50:13,14.98339191,0.0003074,70.0002,115.4717,273.4939,86.5869,-0.00014302,-1.799e-05,0.0,0 STARLINK-3053,1 49149U 21082V   22172.86821476 -.00001799  00000-0 -14302-3 0  9997,2 49149  70.0002 115.4717 0003074 273.4939  86.5869 14.98339191 43934,6950.1640000000025,96.106,574.1659999999998,569.893,0.0
49149.0,STARLINK-3053,PAYLOAD,2022-06-22 06:27:02,14.98322859,0.0003107,70.0005,114.4621,272.8501,87.2303,4.6917e-05,4.67e-06,0.0,0 STARLINK-3053,1 49149U 21082V   22173.26878137  .00000467  00000-0  46917-4 0  9995,2 49149  70.0005 114.4621 0003107 272.8501  87.2303 14.98322859 44008,6950.215,96.107,574.239,569.9209999999998,0.0
49149.0,STARLINK-3053,PAYLOAD,2022-06-22 22:28:23,14.98331626,0.0003148,70.0014,112.7791,273.7773,86.3026,2.3974e-05,1.93e-06,0.0,0 STARLINK-3053,1 49149U 21082V   22173.93637758  .00000193  00000-0  23974-4 0  9995,2 49149  70.0014 112.7791 0003148 273.7773  86.3026 14.98331626 44108,6950.188,96.107,574.241,569.865,0.0
49149.0,STARLINK-3053,PAYLOAD,2022-06-23 12:53:34,14.98339254,0.0003104,70.0009,111.2642,273.4732,86.6071,0.00011025,1.223e-05,0.0,0 STARLINK-3053,1 49149U 21082V   22174.53720853  .00001223  00000-0  11025-3 0  9999,2 49149  70.0009 111.2642 0003104 273.4732  86.6071 14.98339254 44181,6950.1640000000025,96.106,574.187,569.872,0.0
49149.0,STARLINK-3053,PAYLOAD,2022-06-23 20:54:15,14.98330648,0.0002772,70.0008,110.4247,271.5837,88.5005,7.0701e-05,7.51e-06,0.0,0 STARLINK-3053,1 49149U 21082V   22174.87101501  .00000751  00000-0  70701-4 0  9991,2 49149  70.0008 110.4247 0002772 271.5837  88.5005 14.98330648 44239,6950.191,96.107,573.982,570.129,0.0
49149.0,STARLINK-3053,PAYLOAD,2022-06-24 01:42:39,14.98332837,0.0002877,69.9989,109.9184,265.3375,94.7455,6.8847e-06,-1.1e-07,0.0,0 STARLINK-3053,1 49149U 21082V   22175.07129459 -.00000011  00000-0  68847-5 0  9995,2 49149  69.9989 109.9184 0002877 265.3375  94.7455 14.98332837 44275,6950.184,96.107,574.049,570.05,0.0
49149.0,STARLINK-3053,PAYLOAD,2022-06-24 06:31:04,14.98325148,0.0003092,69.9992,109.4134,269.9318,90.1486,-1.4804e-05,-2.7000000000000004e-06,0.0,0 STARLINK-3053,1 49149U 21082V   22175.27158058 -.00000270  00000-0 -14804-4 0  9995,2 49149  69.9992 109.4134 0003092 269.9318  90.1486 14.98325148 44301,6950.208000000001,96.107,574.222,569.924,0.0
49149.0,STARLINK-3053,PAYLOAD,2022-06-24 20:56:16,14.98312394,0.0002892,69.9995,107.8986,270.445,89.6377,0.00039143,4.578e-05,0.0,0 STARLINK-3053,1 49149U 21082V   22175.87241467  .00004578  00000-0  39143-3 0  9993,2 49149  69.9995 107.8986 0002892 270.4450  89.6377 14.98312394 44381,6950.246999999999,96.108,574.122,570.102,0.0
49149.0,STARLINK-3053,PAYLOAD,2022-06-25 01:44:40,14.98325602,0.0003043,69.9999,107.3937,271.7282,88.3528,0.00014115,1.591e-05,0.0,0 STARLINK-3053,1 49149U 21082V   22176.07269530  .00001591  00000-0  14115-3 0  9991,2 49149  69.9999 107.3937 0003043 271.7282  88.3528 14.98325602 44427,6950.206,96.107,574.186,569.957,0.0
49149.0,STARLINK-3053,PAYLOAD,2022-06-25 12:57:37,14.98327016,0.0002985,70.0,106.2154,270.8032,89.2784,-0.00014363,-1.806e-05,0.0,0 STARLINK-3053,1 49149U 21082V   22176.54002269 -.00001806  00000-0 -14363-3 0  9993,2 49149  70.0000 106.2154 0002985 270.8032  89.2784 14.98327016 44480,6950.2019999999975,96.107,574.1419999999998,569.992,0.0
49149.0,STARLINK-3053,PAYLOAD,2022-06-25 20:58:18,14.98319443,0.0003053,70.0002,105.3735,269.9369,90.144,-6.121e-06,-1.66e-06,0.0,0 STARLINK-3053,1 49149U 21082V   22176.87382473 -.00000166  00000-0 -61210-5 0  9990,2 49149  70.0002 105.3735 0003053 269.9369  90.1440 14.98319443 44537,6950.226,96.108,574.212,569.969,0.0
49149.0,STARLINK-3053,PAYLOAD,2022-06-26 03:22:50,14.98325779,0.0003035,70.0001,104.7001,269.6775,90.4036,2.4044e-05,1.94e-06,0.0,0 STARLINK-3053,1 49149U 21082V   22177.14086123  .00000194  00000-0  24044-4 0  9996,2 49149  70.0001 104.7001 0003035 269.6775  90.4036 14.98325779 44581,6950.206,96.107,574.18,569.962,0.0
49149.0,STARLINK-3053,PAYLOAD,2022-06-26 12:59:38,14.98332687,0.0003035,69.9999,103.6905,269.8274,90.2537,3.3974000000000004e-05,3.12e-06,0.0,0 STARLINK-3053,1 49149U 21082V   22177.54141663  .00000312  00000-0  33974-4 0  9995,2 49149  69.9999 103.6905 0003035 269.8274  90.2537 14.98332687 44637,6950.185,96.107,574.159,569.94,0.0
49149.0,STARLINK-3053,PAYLOAD,2022-06-26 21:00:18,14.98330489,0.0002988,69.9999,102.8488,269.5549,90.5268,9.9856e-05,1.099e-05,0.0,0 STARLINK-3053,1 49149U 21082V   22177.87521558  .00001099  00000-0  99856-4 0  9990,2 49149  69.9999 102.8488 0002988 269.5549  90.5268 14.98330489 44690,6950.191,96.107,574.133,569.98,0.0
49149.0,STARLINK-3053,PAYLOAD,2022-06-27 05:00:58,14.98336138,0.0002923,70.0001,102.007,269.4181,90.6643,0.00015696,1.781e-05,0.0,0 STARLINK-3053,1 49149U 21082V   22178.20901019  .00001781  00000-0  15696-3 0  9999,2 49149  70.0001 102.0070 0002923 269.4181  90.6643 14.98336138 44747,6950.174,96.107,574.07,570.007,0.0
49149.0,STARLINK-3053,PAYLOAD,2022-06-27 21:02:19,14.98330134,0.0002731,70.0006,100.3238,270.6734,89.4112,6.6318e-05,6.98e-06,0.0,0 STARLINK-3053,1 49149U 21082V   22178.87661633  .00000698  00000-0  66318-4 0  9991,2 49149  70.0006 100.3238 0002731 270.6734  89.4112 14.98330134 44831,6950.191999999999,96.107,573.956,570.159,0.0
49149.0,STARLINK-3053,PAYLOAD,2022-06-28 01:50:43,14.98329646,0.0002781,70.0006,99.8189,270.2336,89.8505,1.8391e-05,1.26e-06,0.0,0 STARLINK-3053,1 49149U 21082V   22179.07689788  .00000126  00000-0  18391-4 0  9999,2 49149  70.0006  99.8189 0002781 270.2336  89.8505 14.98329646 44877,6950.194,96.107,573.992,570.126,0.0
49149.0,STARLINK-3053,PAYLOAD,2022-06-28 11:27:32,14.98332164,0.0002787,70.0007,98.809,270.7798,89.3041,6.7001e-06,-1.3e-07,0.0,0 STARLINK-3053,1 49149U 21082V   22179.47745629 -.00000013  00000-0  67001-5 0  9999,2 49149  70.0007  98.8090 0002787 270.7798  89.3041 14.98332164 44926,6950.186,96.107,573.988,570.114,0.0
49149.0,STARLINK-3053,PAYLOAD,2022-06-28 21:04:20,14.98328633,0.0002924,70.0002,97.7992,268.2216,91.8608,-8.4883e-05,-1.106e-05,0.0,0 STARLINK-3053,1 49149U 21082V   22179.87801973 -.00001106  00000-0 -84883-4 0  9999,2 49149  70.0002  97.7992 0002924 268.2216  91.8608 14.98328633 44989,6950.196999999999,96.107,574.094,570.03,0.0
49149.0,STARLINK-3053,PAYLOAD,2022-06-29 03:28:53,14.98322724,0.0002946,70.0004,97.1258,269.9492,90.1329,-0.00017296,-2.156e-05,0.0,0 STARLINK-3053,1 49149U 21082V   22180.14506647 -.00002156  00000-0 -17296-3 0  9990,2 49149  70.0004  97.1258 0002946 269.9492  90.1329 14.98322724 45032,6950.215,96.107,574.128,570.033,0.0
49149.0,STARLINK-3053,PAYLOAD,2022-06-29 11:29:33,14.98324989,0.0002974,70.0004,96.2841,269.9613,90.1205,-0.00014027,-1.766e-05,0.0,0 STARLINK-3053,1 49149U 21082V   22180.47886511 -.00001766  00000-0 -14027-3 0  9992,2 49149  70.0004  96.2841 0002974 269.9613  90.1205 14.98324989 45078,6950.208000000001,96.107,574.14,570.006,0.0
49149.0,STARLINK-3053,PAYLOAD,2022-06-29 21:06:22,14.98319442,0.000306,70.0003,95.2742,268.9259,91.1549,-6.1222e-05,-8.23e-06,0.0,0 STARLINK-3053,1 49149U 21082V   22180.87942823 -.00000823  00000-0 -61222-4 0  9998,2 49149  70.0003  95.2742 0003060 268.9259  91.1549 14.98319442 45135,6950.226,96.108,574.217,569.964,0.0
49149.0,STARLINK-3053,PAYLOAD,2022-06-30 03:30:54,14.98322815,0.0003023,70.0003,94.601,269.2819,90.7994,-1.9309e-05,-3.23e-06,0.0,0 STARLINK-3053,1 49149U 21082V   22181.14646640 -.00000323  00000-0 -19309-4 0  9991,2 49149  70.0003  94.6010 0003023 269.2819  90.7994 14.98322815 45172,6950.215,96.107,574.181,569.979,0.0
49149.0,STARLINK-3053,PAYLOAD,2022-06-30 21:08:23,14.98321996,0.0003104,70.0002,92.7486,270.7541,89.3262,1.0192e-05,2.9e-07,0.0,0 STARLINK-3053,1 49149U 21082V   22181.88082939  .00000029  00000-0  10192-4 0  9999,2 49149  70.0002  92.7486 0003104 270.7541  89.3262 14.98321996 45289,6950.218000000003,96.108,574.24,569.925,0.0
49149.0,STARLINK-3053,PAYLOAD,2022-07-01 03:32:55,14.98321076,0.0002943,70.0005,92.0762,268.9891,91.0931,0.00011491,1.278e-05,0.0,0 STARLINK-3053,1 49149U 21082V   22182.14786890  .00001278  00000-0  11491-3 0  9995,2 49149  70.0005  92.0762 0002943 268.9891  91.0931 14.98321076 45337,6950.22,96.108,574.131,570.04,0.0
49149.0,STARLINK-3053,PAYLOAD,2022-07-01 11:33:36,14.98323117,0.0002898,70.0007,91.2348,268.2607,91.822,0.00010288,1.135e-05,0.0,0 STARLINK-3053,1 49149U 21082V   22182.48166971  .00001135  00000-0  10288-3 0  9999,2 49149  70.0007  91.2348 0002898 268.2607  91.8220 14.98323117 45378,6950.214,96.107,574.0930000000002,570.065,0.0
49149.0,STARLINK-3053,PAYLOAD,2022-07-01 21:10:24,14.98325435,0.0002898999999999,70.0007,90.2253,268.7727,91.31,8.296200000000001e-05,8.97e-06,0.0,0 STARLINK-3053,1 49149U 21082V   22182.88223017  .00000897  00000-0  82962-4 0  9991,2 49149  70.0007  90.2253 0002899 268.7727  91.3100 14.98325435 45435,6950.206999999999,96.107,574.087,570.057,0.0
49149.0,STARLINK-3053,PAYLOAD,2022-07-02 03:34:56,14.98328772,0.0002878,70.0007,89.552,268.6972,91.3858,0.00010358,1.143e-05,0.0,0 STARLINK-3053,1 49149U 21082V   22183.14926806  .00001143  00000-0  10358-3 0  9991,2 49149  70.0007  89.5520 0002878 268.6972  91.3858 14.98328772 45472,6950.196999999999,96.107,574.062,570.061,0.0
